{
    "links": {
        "self": "http://www.neowsapp.com/rest/v1/neo/3761351?api_key=iIulBulltgU6a56xZRHN4H3l9WmuAYTsLGpBGhQ2"
    },
    "id": "3761351",
    "neo_reference_id": "3761351",
    "name": "(2016 UP5)",
    "designation": "2016 UP5",
    "nasa_jpl_url": "http://ssd.jpl.nasa.gov/sbdb.cgi?sstr=3761351",
    "absolute_magnitude_h": 24.4,
    "estimated_diameter": {
        "kilometers": {
            "estimated_diameter_min": 0.0350392641,
            "estimated_diameter_max": 0.0783501764
        },
        "meters": {
            "estimated_diameter_min": 35.0392641108,
            "estimated_diameter_max": 78.3501764334
        },
        "miles": {
            "estimated_diameter_min": 0.0217723826,
            "estimated_diameter_max": 0.0486845275
        },
        "feet": {
            "estimated_diameter_min": 114.9582192654,
            "estimated_diameter_max": 257.0543928497
        }
    },
    "is_potentially_hazardous_asteroid": false,
    "close_approach_data": [
        {
            "close_approach_date": "1922-01-03",
            "close_approach_date_full": "1922-Jan-03 00:21",
            "epoch_date_close_approach": -1514590740000,
            "relative_velocity": {
                "kilometers_per_second": "4.8060074503",
                "kilometers_per_hour": "17301.6268212278",
                "miles_per_hour": "10750.5580656679"
            },
            "miss_distance": {
                "astronomical": "0.8969813637",
                "lunar": "348.9257504793",
                "kilometers": "134186501.439215319",
                "miles": "83379625.6297126422"
            },
            "orbiting_body": "Juptr"
        },
        {
            "close_approach_date": "2005-02-07",
            "close_approach_date_full": "2005-Feb-07 22:01",
            "epoch_date_close_approach": 1107813660000,
            "relative_velocity": {
                "kilometers_per_second": "5.1903432491",
                "kilometers_per_hour": "18685.2356967266",
                "miles_per_hour": "11610.2788138911"
            },
            "miss_distance": {
                "astronomical": "1.0159158366",
                "lunar": "395.1912604374",
                "kilometers": "151978845.254628042",
                "miles": "94435275.4193172996"
            },
            "orbiting_body": "Juptr"
        },
        {
            "close_approach_date": "2016-10-15",
            "close_approach_date_full": "2016-Oct-15 13:30",
            "epoch_date_close_approach": 1476538200000,
            "relative_velocity": {
                "kilometers_per_second": "9.049367563",
                "kilometers_per_hour": "32577.7232268537",
                "miles_per_hour": "20242.5303017081"
            },
            "miss_distance": {
                "astronomical": "0.0229859956",
                "lunar": "8.9415522884",
                "kilometers": "3438655.981589372",
                "miles": "2136681.7477104536"
            },
            "orbiting_body": "Earth"
        },
        {
            "close_approach_date": "2028-11-18",
            "close_approach_date_full": "2028-Nov-18 14:38",
            "epoch_date_close_approach": 1858171080000,
            "relative_velocity": {
                "kilometers_per_second": "4.4940213153",
                "kilometers_per_hour": "16178.4767350272",
                "miles_per_hour": "10052.6762801618"
            },
            "miss_distance": {
                "astronomical": "0.7715335935",
                "lunar": "300.1265678715",
                "kilometers": "115419782.221045845",
                "miles": "71718527.039868861"
            },
            "orbiting_body": "Juptr"
        },
        {
            "close_approach_date": "2052-08-22",
            "close_approach_date_full": "2052-Aug-22 01:55",
            "epoch_date_close_approach": 2607904500000,
            "relative_velocity": {
                "kilometers_per_second": "4.4523601522",
                "kilometers_per_hour": "16028.4965478486",
                "miles_per_hour": "9959.4844244118"
            },
            "miss_distance": {
                "astronomical": "0.764063513",
                "lunar": "297.220706557",
                "kilometers": "114302274.08951731",
                "miles": "71024139.686106478"
            },
            "orbiting_body": "Juptr"
        }
    ],
    "orbital_data": {
        "orbit_id": "9",
        "orbit_determination_date": "2017-04-06 08:22:53",
        "first_observation_date": "2016-10-20",
        "last_observation_date": "2016-11-05",
        "data_arc_in_days": 16,
        "observations_used": 74,
        "orbit_uncertainty": "7",
        "minimum_orbit_intersection": ".0146275",
        "jupiter_tisserand_invariant": "2.957",
        "epoch_osculation": "2459000.5",
        "eccentricity": ".6445335643368534",
        "semi_major_axis": "2.843466346596442",
        "inclination": "4.112604426777534",
        "ascending_node_longitude": "19.76991403140027",
        "orbital_period": "1751.340398574334",
        "perihelion_distance": "1.010756847152747",
        "perihelion_argument": "350.7610941270264",
        "aphelion_distance": "4.676175846040136",
        "perihelion_time": "2459418.089504376275",
        "mean_anomaly": "274.1616206090856",
        "mean_motion": ".205556841087578",
        "equinox": "J2000",
        "orbit_class": {
            "orbit_class_type": "APO",
            "orbit_class_description": "Near-Earth asteroid orbits which cross the Earth’s orbit similar to that of 1862 Apollo",
            "orbit_class_range": "a (semi-major axis) > 1.0 AU; q (perihelion) < 1.017 AU"
        }
    },
    "is_sentry_object": false
}